{
  "norad_id": 52854,
  "name": "STARLINK-4204",
  "history": [
    {
      "epoch": "2026-03-28T20:13:45.681312Z",
      "apogee_km": 540.6583531459382,
      "perigee_km": 538.8287121026706,
      "latitude_deg": -3.19439190119897e-05,
      "longitude_deg": 168.4384114181804,
      "height_km": 540.7588918951739,
      "semi_major_axis_km": 6917.880532624305,
      "eccentricity": 0.00013224,
      "inclination_deg": 53.2173,
      "raan_deg": 298.1363,
      "arg_perigee_deg": 97.5117,
      "mean_anomaly_deg": 262.6025,
      "mean_motion_rev_day": 15.08839953
    }
  ]
}